# Made by eph2tle, compiled Sep 23 2022 17:24:55
# Run at Mon Sep 26 22:43:34 2022
#
#    The following TLEs (Two-Line Elements) were generated by fitting
# a numerically-integrated ephemeris,  based on the orbit given below,
# to the SDP4/SGP4 models.  Each TLE is good for the interval between
# its epoch and the epoch of the subsequent TLE (usually one day).
# The maximum deviation between the numerically integrated ephemerides
# and the TLE-based ephemeris, in kilometers,  is given for each TLE
# as the "worst residual".
#
#    This fitting is done using the 'eph2tle' code packaged with Find_Orb.
# The code has details on how the TLEs were computed :
#
#    https://github.com/Bill-Gray/find_orb/eph2tle.cpp
#
#    Be warned:  the error given is that between the numerically
# integrated ephems and the TLE model.  There will usually be at
# least some additional difference between the ephems and the actual
# motion of the satellite,  especially if the ephemerides are based
# on a short arc.  If the following orbital elements say something
# like "[based on] 10 observations 2015 Jan. 1-13",  and the TLEs
# are for 2015 May,  the extrapolation may be tenuous at best.  If
# your application requires a specific level of accuracy,  you may
# want to contact me;  I can give you some idea as to the fit of the
# underlying data (and possibly TLEs based on newer data).
#
#   You can usually find the underlying observational data,  and the
# fitted orbit,  residuals,  ephemerides,  and sometimes some comments
# about the object,  among the pages listed at
#
#    https://www.projectpluto.com/pluto/mpecs/pseudo.htm
#
#    Also,  if you use a TLE outside the "correct" time range (between
# its MJD and that of the next TLE),  all bets are off.  I've carefully
# computed and minimized the worst error over the "correct" time frame,
# but the ephemeris may (or may not) diverge wildly outside of it.
#
# Ephem range: 59580.000000 59945.000000 1.000000
# Created Mon Sep 26 22:43:30 2022
# Ephemeris start:  1 Jan 2022  0:00:00
# Ephemeris end:    1 Jan 2023  0:00:00
# Times are all TDT
# Positions/velocities are in equatorial J2000
# Orbital elements:  2011-037A = Spektr-R = NORAD 37755
#    Perigee 2022 Feb 25.12910 +/- 4.09e-5 TT =  3:05:54 (JD 2459635.62910)
# A1: 3.79e-9 +/- 4.66e-11   A2: -9.43e-10 +/- 9.76e-11
# A3: -1.4e-12 +/- 5.15e-11 AU/day^2 [1/r^2]
# Epoch 2022 Feb 21.0 TT = JDT 2459631.5                           Find_Orb
# M 210.50878885 +/- 0.0015           (J2000 equator)
# n  36.20426722 +/- 1.8e-5           Peri.  354.76481 +/- 0.00034
# a195327.622 +/- 0.0646              Node   308.81364 +/- 0.00018
# e   0.8076250 +/- 3.35e-6           Incl.   54.39801 +/- 0.00046
# P   9.94d                  H 26.8   G  0.15   U  5.4
# q 37576.1459 +/- 0.657    Q 353079.100 +/- 0.636
# 160 of 245 observations 2021 Dec. 13-2022 Sept. 26; mean residual 8".206
#
# 1 NoradU COSPAR   Epoch.epoch     dn/dt/2  d2n/dt2/6 BSTAR    T El# C
# 2 NoradU Inclina RAAscNode Eccent  ArgPeri MeanAno  MeanMotion Rev# C

# Worst residual: 12.11 km
# MJD 59580.000000 (2022 Jan  1  0:00)
2011-037A = Spektr-R = NORAD 37755
1 37755U 11037A   22001.49919926  .00000000  00000-0  00000-0 0 17318
2 37755 060.5835 307.6967 7948636 352.3529 158.5169 00.10507808    00

# Worst residual: 8.09 km
# MJD 59581.000000 (2022 Jan  2  0:00)
2011-037A = Spektr-R = NORAD 37755
1 37755U 11037A   22002.49919926  .00000000  00000-0  00000-0 0 17319
2 37755 060.4476 307.6991 7940873 352.4108 196.1373 00.10496091    02

# Worst residual: 14.56 km
# MJD 59582.000000 (2022 Jan  3  0:00)
2011-037A = Spektr-R = NORAD 37755
1 37755U 11037A   22003.49919926  .00000000  00000-0  00000-0 0 17310
2 37755 060.4534 307.6906 7932879 352.3595 234.1363 00.10474440    05

# Worst residual: 31.26 km
# MJD 59583.000000 (2022 Jan  4  0:00)
2011-037A = Spektr-R = NORAD 37755
1 37755U 11037A   22004.49919926  .00000000  00000-0  00000-0 0 17311
2 37755 060.5739 307.7155 7932082 352.1857 272.3945 00.10421290    00

# Worst residual: 58.92 km
# MJD 59584.000000 (2022 Jan  5  0:00)
2011-037A = Spektr-R = NORAD 37755
1 37755U 11037A   22005.49919926  .00000000  00000-0  00000-0 0 17312
2 37755 060.6221 307.7802 7948371 351.8761 310.7324 00.10275343    08

# Worst residual: 275.58 km
# MJD 59585.000000 (2022 Jan  6  0:00)
2011-037A = Spektr-R = NORAD 37755
1 37755U 11037A   22006.49919926  .00000000  00000-0  00000-0 0 17313
2 37755 060.3432 307.7002 8037905 352.2662 348.1424 00.09909962    04

# Worst residual: 135.03 km
# MJD 59586.000000 (2022 Jan  7  0:00)
2011-037A = Spektr-R = NORAD 37755
1 37755U 11037A   22007.49919926  .00000000  00000-0  00000-0 0 17314
2 37755 060.5133 307.7092 7982566 353.2643 024.7773 00.10288070    00

# Worst residual: 22.28 km
# MJD 59587.000000 (2022 Jan  8  0:00)
2011-037A = Spektr-R = NORAD 37755
1 37755U 11037A   22008.49919926  .00000000  00000-0  00000-0 0 17315
2 37755 060.4694 307.7657 7959771 352.8505 063.6722 00.10556903    01

# Worst residual: 3.16 km
# MJD 59588.000000 (2022 Jan  9  0:00)
2011-037A = Spektr-R = NORAD 37755
1 37755U 11037A   22009.49919926  .00000000  00000-0  00000-0 0 17316
2 37755 060.4632 307.7212 7963436 352.8378 101.9031 00.10583390    00

# Worst residual: 5.14 km
# MJD 59589.000000 (2022 Jan 10  0:00)
2011-037A = Spektr-R = NORAD 37755
1 37755U 11037A   22010.49919926  .00000000  00000-0  00000-0 0 17318
2 37755 060.4227 307.6978 7965020 352.9179 139.8122 00.10578028    02

# Worst residual: 8.13 km
# MJD 59590.000000 (2022 Jan 11  0:00)
2011-037A = Spektr-R = NORAD 37755
1 37755U 11037A   22011.49919926  .00000000  00000-0  00000-0 0 17319
2 37755 060.2720 307.7049 7959827 352.9842 177.6858 00.10568060    04

# Worst residual: 18.63 km
# MJD 59591.000000 (2022 Jan 12  0:00)
2011-037A = Spektr-R = NORAD 37755
1 37755U 11037A   22012.49919926  .00000000  00000-0  00000-0 0 17310
2 37755 060.0330 307.7105 7946809 352.9730 215.7653 00.10550027    05

# Worst residual: 35.25 km
# MJD 59592.000000 (2022 Jan 13  0:00)
2011-037A = Spektr-R = NORAD 37755
1 37755U 11037A   22013.49919926  .00000000  00000-0  00000-0 0 17311
2 37755 059.7913 307.6969 7930157 352.8108 254.2100 00.10502864    02

# Worst residual: 61.02 km
# MJD 59593.000000 (2022 Jan 14  0:00)
2011-037A = Spektr-R = NORAD 37755
1 37755U 11037A   22014.49919926  .00000000  00000-0  00000-0 0 17312
2 37755 059.6291 307.6930 7920622 352.3871 293.0280 00.10366877    08

# Worst residual: 213.64 km
# MJD 59594.000000 (2022 Jan 15  0:00)
2011-037A = Spektr-R = NORAD 37755
1 37755U 11037A   22015.49919926  .00000000  00000-0  00000-0 0 17313
2 37755 059.4360 307.7939 7968527 351.4674 332.0261 00.09828471    04

# Worst residual: 256.79 km
# MJD 59595.000000 (2022 Jan 16  0:00)
2011-037A = Spektr-R = NORAD 37755
1 37755U 11037A   22016.49919926  .00000000  00000-0  00000-0 0 17314
2 37755 059.2729 307.8085 8049075 353.2200 007.1022 00.09720424    02

# Worst residual: 48.74 km
# MJD 59596.000000 (2022 Jan 17  0:00)
2011-037A = Spektr-R = NORAD 37755
1 37755U 11037A   22017.49919926  .00000000  00000-0  00000-0 0 17315
2 37755 059.4066 307.7783 7966655 353.3458 044.7914 00.10249341    02

# Worst residual: 68.61 km
# MJD 59597.000000 (2022 Jan 18  0:00)
2011-037A = Spektr-R = NORAD 37755
1 37755U 11037A   22018.49919926  .00000000  00000-0  00000-0 0 17316
2 37755 058.9709 308.0390 7958049 353.4609 081.2891 00.10219471    06

# Worst residual: 73.36 km
# MJD 59598.000000 (2022 Jan 19  0:00)
2011-037A = Spektr-R = NORAD 37755
1 37755U 11037A   22019.49919926  .00000000  00000-0  00000-0 0 17317
2 37755 057.5747 308.6831 7929584 353.5990 116.8087 00.10133508    03

# Worst residual: 42.20 km
# MJD 59599.000000 (2022 Jan 20  0:00)
2011-037A = Spektr-R = NORAD 37755
1 37755U 11037A   22020.49919926  .00000000  00000-0  00000-0 0 17319
2 37755 056.3351 309.0708 7898599 353.4808 153.4370 00.10115379    05

# Worst residual: 23.63 km
# MJD 59600.000000 (2022 Jan 21  0:00)
2011-037A = Spektr-R = NORAD 37755
1 37755U 11037A   22021.49919926  .00000000  00000-0  00000-0 0 17310
2 37755 055.8194 309.1480 7882692 353.3672 190.3945 00.10103713    04

# Worst residual: 8.89 km
# MJD 59601.000000 (2022 Jan 22  0:00)
2011-037A = Spektr-R = NORAD 37755
1 37755U 11037A   22022.49919926  .00000000  00000-0  00000-0 0 17311
2 37755 055.6824 309.1419 7879891 353.3126 227.0785 00.10090011    01

# Worst residual: 2.34 km
# MJD 59602.000000 (2022 Jan 23  0:00)
2011-037A = Spektr-R = NORAD 37755
1 37755U 11037A   22023.49919926  .00000000  00000-0  00000-0 0 17312
2 37755 055.6101 309.1293 7882549 353.3232 263.3923 00.10082300    00

# Worst residual: 13.45 km
# MJD 59603.000000 (2022 Jan 24  0:00)
2011-037A = Spektr-R = NORAD 37755
1 37755U 11037A   22024.49919926  .00000000  00000-0  00000-0 0 17313
2 37755 055.4570 309.0851 7882628 353.3817 299.4713 00.10086949    04

# Worst residual: 27.60 km
# MJD 59604.000000 (2022 Jan 25  0:00)
2011-037A = Spektr-R = NORAD 37755
1 37755U 11037A   22025.49919926  .00000000  00000-0  00000-0 0 17314
2 37755 055.2847 308.9889 7875540 353.4430 335.5068 00.10120403    04

# Worst residual: 72.42 km
# MJD 59605.000000 (2022 Jan 26  0:00)
2011-037A = Spektr-R = NORAD 37755
1 37755U 11037A   22026.49919926  .00000000  00000-0  00000-0 0 17315
2 37755 055.2059 308.9533 7866602 353.1948 011.9109 00.10181744    01

# Worst residual: 29.85 km
# MJD 59606.000000 (2022 Jan 27  0:00)
2011-037A = Spektr-R = NORAD 37755
1 37755U 11037A   22027.49919926  .00000000  00000-0  00000-0 0 17316
2 37755 055.1226 308.8951 7903871 353.0046 047.9115 00.10097671    08

# Worst residual: 17.83 km
# MJD 59607.000000 (2022 Jan 28  0:00)
2011-037A = Spektr-R = NORAD 37755
1 37755U 11037A   22028.49919926  .00000000  00000-0  00000-0 0 17317
2 37755 054.9957 308.9007 7922588 353.1490 083.3326 00.10030292    03
